{
  "type": "FeatureCollection",
  "features": [
    {
      "type": "Feature",
      "properties": {
        "norad_id": 36828,
        "name": "BEIDOU-2 IGSO-1 (C06)",
        "group": "beidou",
        "lat": -34.139933269121066,
        "lon": 13.980446365030962,
        "alt_km": 35574.62018250205,
        "timestamp": "2025-12-03T13:52:09.826451+00:00",
        "meta_object_name": "BEIDOU-2 IGSO-1 (C06)",
        "meta_object_id": "2010-036A",
        "meta_epoch": "2025-12-02T23:10:21.569952",
        "meta_mean_motion": 1.00278743,
        "meta_eccentricity": 0.00512752,
        "meta_inclination": 54.2836,
        "meta_ra_of_asc_node": 164.7371,
        "meta_arg_of_pericenter": 215.7816,
        "meta_mean_anomaly": 146.8764,
        "meta_ephemeris_type": 0,
        "meta_classification_type": "U",
        "meta_norad_cat_id": 36828,
        "meta_element_set_no": 999,
        "meta_rev_at_epoch": 5613,
        "meta_bstar": 0,
        "meta_mean_motion_dot": -2e-07,
        "meta_mean_motion_ddot": 0,
        "tle_line1": "1 36828U 10036A   25336.96552743 -.00000020  00000+0  00000+0 0  9998",
        "tle_line2": "2 36828  54.2836 164.7371 0051275 215.7816 146.8764  1.00278743 56139"
      },
      "geometry": {
        "type": "Point",
        "coordinates": [
          13.980446365030962,
          -34.139933269121066
        ]
      }
    },
    {
      "type": "Feature",
      "properties": {
        "norad_id": 37210,
        "name": "BEIDOU-2 G4 (C04)",
        "group": "beidou",
        "lat": 0.6144927549844332,
        "lon": 80.73313761266039,
        "alt_km": 35832.28685834677,
        "timestamp": "2025-12-03T13:52:09.826474+00:00",
        "meta_object_name": "BEIDOU-2 G4 (C04)",
        "meta_object_id": "2010-057A",
        "meta_epoch": "2025-12-03T07:40:10.700256",
        "meta_mean_motion": 1.0027133,
        "meta_eccentricity": 0.00109016,
        "meta_inclination": 3.1595,
        "meta_ra_of_asc_node": 69.9603,
        "meta_arg_of_pericenter": 188.3414,
        "meta_mean_anomaly": 89.2241,
        "meta_ephemeris_type": 0,
        "meta_classification_type": "U",
        "meta_norad_cat_id": 37210,
        "meta_element_set_no": 999,
        "meta_rev_at_epoch": 5532,
        "meta_bstar": 0,
        "meta_mean_motion_dot": -9.4e-07,
        "meta_mean_motion_ddot": 0,
        "tle_line1": "1 37210U 10057A   25337.31956829 -.00000094  00000+0  00000+0 0  9991",
        "tle_line2": "2 37210   3.1595  69.9603 0010901 188.3414  89.2241  1.00271330 55329"
      },
      "geometry": {
        "type": "Point",
        "coordinates": [
          80.73313761266039,
          0.6144927549844332
        ]
      }
    },
    {
      "type": "Feature",
      "properties": {
        "norad_id": 37256,
        "name": "BEIDOU-2 IGSO-2 (C07)",
        "group": "beidou",
        "lat": 43.07045439635587,
        "lon": 36.72158112088827,
        "alt_km": 35822.207865336124,
        "timestamp": "2025-12-03T13:52:09.826489+00:00",
        "meta_object_name": "BEIDOU-2 IGSO-2 (C07)",
        "meta_object_id": "2010-068A",
        "meta_epoch": "2025-12-02T18:32:21.656832",
        "meta_mean_motion": 1.00289076,
        "meta_eccentricity": 0.00492778,
        "meta_inclination": 47.9063,
        "meta_ra_of_asc_node": 274.2734,
        "meta_arg_of_pericenter": 216.2016,
        "meta_mean_anomaly": 326.6202,
        "meta_ephemeris_type": 0,
        "meta_classification_type": "U",
        "meta_norad_cat_id": 37256,
        "meta_element_set_no": 999,
        "meta_rev_at_epoch": 5482,
        "meta_bstar": 0,
        "meta_mean_motion_dot": -2.27e-06,
        "meta_mean_motion_ddot": 0,
        "tle_line1": "1 37256U 10068A   25336.77247288 -.00000227  00000+0  00000+0 0  9992",
        "tle_line2": "2 37256  47.9063 274.2734 0049277 216.2016 326.6202  1.00289076 54823"
      },
      "geometry": {
        "type": "Point",
        "coordinates": [
          36.72158112088827,
          43.07045439635587
        ]
      }
    },
    {
      "type": "Feature",
      "properties": {
        "norad_id": 37384,
        "name": "BEIDOU-2 IGSO-3 (C08)",
        "group": "beidou",
        "lat": -11.933445973800785,
        "lon": 35.63255125756583,
        "alt_km": 35929.94031001258,
        "timestamp": "2025-12-03T13:52:09.826502+00:00",
        "meta_object_name": "BEIDOU-2 IGSO-3 (C08)",
        "meta_object_id": "2011-013A",
        "meta_epoch": "2025-11-29T21:04:05.094336",
        "meta_mean_motion": 1.00273417,
        "meta_eccentricity": 0.00356655,
        "meta_inclination": 62.1255,
        "meta_ra_of_asc_node": 42.0418,
        "meta_arg_of_pericenter": 186.0158,
        "meta_mean_anomaly": 264.7363,
        "meta_ephemeris_type": 0,
        "meta_classification_type": "U",
        "meta_norad_cat_id": 37384,
        "meta_element_set_no": 999,
        "meta_rev_at_epoch": 5366,
        "meta_bstar": 0,
        "meta_mean_motion_dot": -1.94e-06,
        "meta_mean_motion_ddot": 0,
        "tle_line1": "1 37384U 11013A   25333.87783674 -.00000194  00000+0  00000+0 0  9990",
        "tle_line2": "2 37384  62.1255  42.0418 0035665 186.0158 264.7363  1.00273417 53667"
      },
      "geometry": {
        "type": "Point",
        "coordinates": [
          35.63255125756583,
          -11.933445973800785
        ]
      }
    },
    {
      "type": "Feature",
      "properties": {
        "norad_id": 37763,
        "name": "BEIDOU-2 IGSO-4 (C09)",
        "group": "beidou",
        "lat": -21.41087913489223,
        "lon": 3.6581097935119202,
        "alt_km": 35209.18280649023,
        "timestamp": "2025-12-03T13:52:09.826515+00:00",
        "meta_object_name": "BEIDOU-2 IGSO-4 (C09)",
        "meta_object_id": "2011-038A",
        "meta_epoch": "2025-12-01T12:32:09.960864",
        "meta_mean_motion": 1.00284074,
        "meta_eccentricity": 0.01487808,
        "meta_inclination": 54.5808,
        "meta_ra_of_asc_node": 167.4476,
        "meta_arg_of_pericenter": 230.2031,
        "meta_mean_anomaly": 315.0387,
        "meta_ephemeris_type": 0,
        "meta_classification_type": "U",
        "meta_norad_cat_id": 37763,
        "meta_element_set_no": 999,
        "meta_rev_at_epoch": 5266,
        "meta_bstar": 0,
        "meta_mean_motion_dot": 1.01e-06,
        "meta_mean_motion_ddot": 0,
        "tle_line1": "1 37763U 11038A   25335.52233751  .00000101  00000+0  00000+0 0  9995",
        "tle_line2": "2 37763  54.5808 167.4476 0148780 230.2031 315.0387  1.00284074 52664"
      },
      "geometry": {
        "type": "Point",
        "coordinates": [
          3.6581097935119202,
          -21.41087913489223
        ]
      }
    },
    {
      "type": "Feature",
      "properties": {
        "norad_id": 37948,
        "name": "BEIDOU-2 IGSO-5 (C10)",
        "group": "beidou",
        "lat": 47.44201507319374,
        "lon": 15.98549890424238,
        "alt_km": 36031.814024326064,
        "timestamp": "2025-12-03T13:52:09.826528+00:00",
        "meta_object_name": "BEIDOU-2 IGSO-5 (C10)",
        "meta_object_id": "2011-073A",
        "meta_epoch": "2025-12-02T19:23:39.606720",
        "meta_mean_motion": 1.00292511,
        "meta_eccentricity": 0.01107055,
        "meta_inclination": 48.0402,
        "meta_ra_of_asc_node": 273.9813,
        "meta_arg_of_pericenter": 222.1881,
        "meta_mean_anomaly": 319.0044,
        "meta_ephemeris_type": 0,
        "meta_classification_type": "U",
        "meta_norad_cat_id": 37948,
        "meta_element_set_no": 999,
        "meta_rev_at_epoch": 5116,
        "meta_bstar": 0,
        "meta_mean_motion_dot": -1.77e-06,
        "meta_mean_motion_ddot": 0,
        "tle_line1": "1 37948U 11073A   25336.80809730 -.00000177  00000+0  00000+0 0  9991",
        "tle_line2": "2 37948  48.0402 273.9813 0110705 222.1881 319.0044  1.00292511 51167"
      },
      "geometry": {
        "type": "Point",
        "coordinates": [
          15.98549890424238,
          47.44201507319374
        ]
      }
    },
    {
      "type": "Feature",
      "properties": {
        "norad_id": 38091,
        "name": "BEIDOU-2 G5 (C05)",
        "group": "beidou",
        "lat": -3.0769206138864185,
        "lon": -20.515722260852463,
        "alt_km": 35748.78410777078,
        "timestamp": "2025-12-03T13:52:09.826540+00:00",
        "meta_object_name": "BEIDOU-2 G5 (C05)",
        "meta_object_id": "2012-008A",
        "meta_epoch": "2025-12-03T02:02:57.759072",
        "meta_mean_motion": 1.00272197,
        "meta_eccentricity": 0.00122905,
        "meta_inclination": 3.0833,
        "meta_ra_of_asc_node": 70.7346,
        "meta_arg_of_pericenter": 225.4564,
        "meta_mean_anomaly": 225.4309,
        "meta_ephemeris_type": 0,
        "meta_classification_type": "U",
        "meta_norad_cat_id": 38091,
        "meta_element_set_no": 999,
        "meta_rev_at_epoch": 5040,
        "meta_bstar": 0,
        "meta_mean_motion_dot": 7.5e-07,
        "meta_mean_motion_ddot": 0,
        "tle_line1": "1 38091U 12008A   25337.08539073  .00000075  00000+0  00000+0 0  9997",
        "tle_line2": "2 38091   3.0833  70.7346 0012290 225.4564 225.4309  1.00272197 50402"
      },
      "geometry": {
        "type": "Point",
        "coordinates": [
          -20.515722260852463,
          -3.0769206138864185
        ]
      }
    }
  ]
}